[{"OBJECT_NAME":"STARLINK-31385","OBJECT_ID":"2024-031W","EPOCH":"2026-03-09T21:21:34.945056","MEAN_MOTION":15.30187557,"ECCENTRICITY":0.00010354,"INCLINATION":53.1602,"RA_OF_ASC_NODE":293.6053,"ARG_OF_PERICENTER":86.2015,"MEAN_ANOMALY":273.9104,"EPHEMERIS_TYPE":0,"CLASSIFICATION_TYPE":"U","NORAD_CAT_ID":58985,"ELEMENT_SET_NO":999,"REV_AT_EPOCH":11657,"BSTAR":6.2753932e-5,"MEAN_MOTION_DOT":1.499e-5,"MEAN_MOTION_DDOT":0},{"OBJECT_NAME":"CZ-6A DEB","OBJECT_ID":"2022-151DV","EPOCH":"2026-03-09T19:16:59.107296","MEAN_MOTION":15.22406517,"ECCENTRICITY":0.00445255,"INCLINATION":98.4509,"RA_OF_ASC_NODE":160.1888,"ARG_OF_PERICENTER":355.6495,"MEAN_ANOMALY":4.4345,"EPHEMERIS_TYPE":0,"CLASSIFICATION_TYPE":"U","NORAD_CAT_ID":54397,"ELEMENT_SET_NO":999,"REV_AT_EPOCH":17880,"BSTAR":0.0035436228,"MEAN_MOTION_DOT":0.00084931,"MEAN_MOTION_DDOT":0}]
